NORAD_CAT_ID,OBJECT_NAME,OBJECT_TYPE,EPOCH,MEAN_MOTION,ECCENTRICITY,INCLINATION,RA_OF_ASC_NODE,ARG_OF_PERICENTER,MEAN_ANOMALY,BSTAR,MEAN_MOTION_DOT,MEAN_MOTION_DDOT,TLE_LINE0,TLE_LINE1,TLE_LINE2,SEMIMAJOR_AXIS,PERIOD,APOGEE,PERIGEE,DECAYED
55931.0,STARLINK-5897,PAYLOAD,2023-12-16 13:34:44,14.98326348,0.0002427,69.999,196.9718,254.4333,105.6559,4.0782e-06,-4.4e-07,0.0,0 STARLINK-5897,1 55931U 23037T   23350.56579825 -.00000044  00000-0  40782-5 0  9993,2 55931  69.9990 196.9718 0002427 254.4333 105.6559 14.98326348 41540,6950.204,96.107,573.756,570.382,0.0
55931.0,STARLINK-5897,PAYLOAD,2023-12-16 19:59:17,14.98325679,0.0002383,69.9988,196.2981,256.537,103.5523,-3.5889e-06,-1.36e-06,0.0,0 STARLINK-5897,1 55931U 23037T   23350.83283970 -.00000136  00000-0 -35889-5 0  9991,2 55931  69.9988 196.2981 0002383 256.5370 103.5523 14.98325679 41923,6950.206,96.107,573.727,570.415,0.0
55931.0,STARLINK-5897,PAYLOAD,2023-12-16 21:35:25,14.98325525,0.0002356,69.9989,196.1291,259.1364,100.9529,2.4175e-05,1.96e-06,0.0,0 STARLINK-5897,1 55931U 23037T   23350.89959961  .00000196  00000-0  24175-4 0  9996,2 55931  69.9989 196.1291 0002356 259.1364 100.9529 14.98325525 41599,6950.207,96.107,573.709,570.434,0.0
55931.0,STARLINK-5897,PAYLOAD,2023-12-16 23:11:33,14.98326661,0.000239,69.9988,195.9612,257.2667,102.8225,2.2089e-05,1.71e-06,0.0,0 STARLINK-5897,1 55931U 23037T   23350.96635858  .00000171  00000-0  22089-4 0  9995,2 55931  69.9988 195.9612 0002390 257.2667 102.8225 14.98326661 41603,6950.203,96.107,573.729,570.407,0.0
55931.0,STARLINK-5897,PAYLOAD,2023-12-17 20:01:17,14.9833016,0.0002529,69.9985,193.7726,266.0036,94.0834,8.8433e-05,9.62e-06,0.0,0 STARLINK-5897,1 55931U 23037T   23351.83423466  .00000962  00000-0  88433-4 0  9995,2 55931  69.9985 193.7726 0002529 266.0036  94.0834 14.98330160 42073,6950.192,96.107,573.815,570.3,0.0
55931.0,STARLINK-5897,PAYLOAD,2023-12-17 21:37:25,14.98333864,0.0002513,69.9985,193.6047,264.2746,95.8126,6.8912e-05,7.29e-06,0.0,0 STARLINK-5897,1 55931U 23037T   23351.90099269  .00000729  00000-0  68912-4 0  9994,2 55931  69.9985 193.6047 0002513 264.2746  95.8126 14.98333864 41749,6950.181,96.107,573.793,570.299,0.0
55931.0,STARLINK-5897,PAYLOAD,2023-12-17 23:13:33,14.98348489,0.000266,69.9985,193.4362,270.1645,89.921,-0.00019117,-2.374e-05,0.0,0 STARLINK-5897,1 55931U 23037T   23351.96774977 -.00002374  00000-0 -19117-3 0  9998,2 55931  69.9985 193.4362 0002660 270.1645  89.9210 14.98348489 42090,6950.136,96.106,573.849,570.152,0.0
55931.0,STARLINK-5897,PAYLOAD,2023-12-18 20:03:18,14.98332515,0.0002391,69.9988,191.2487,268.2332,91.8553,-2.5656e-05,-3.99e-06,0.0,0 STARLINK-5897,1 55931U 23037T   23352.83563547 -.00000399  00000-0 -25656-4 0  9995,2 55931  69.9988 191.2487 0002391 268.2332  91.8553 14.98332515 42229,6950.185,96.107,573.712,570.388,0.0
55931.0,STARLINK-5897,PAYLOAD,2023-12-18 21:39:26,14.98330178,0.0002412,69.9987,191.0803,264.3865,95.7019,1.4821e-05,8.4e-07,0.0,0 STARLINK-5897,1 55931U 23037T   23352.90239562  .00000084  00000-0  14821-4 0  9991,2 55931  69.9987 191.0803 0002412 264.3865  95.7019 14.98330178 41895,6950.192,96.107,573.734,570.381,0.0
55931.0,STARLINK-5897,PAYLOAD,2023-12-19 13:40:47,14.9833083,0.0002372,69.9988,189.3976,267.5848,92.5039,-5.0007e-05,-6.9e-06,0.0,0 STARLINK-5897,1 55931U 23037T   23353.56999695 -.00000690  00000-0 -50007-4 0  9995,2 55931  69.9988 189.3976 0002372 267.5848  92.5039 14.98330830 41991,6950.19,96.107,573.704,570.407,0.0
55931.0,STARLINK-5897,PAYLOAD,2023-12-19 20:05:20,14.98329077,0.0002359,69.9989,188.7242,265.4623,94.6267,-5.1182e-05,-7.04e-06,0.0,0 STARLINK-5897,1 55931U 23037T   23353.83703786 -.00000704  00000-0 -51182-4 0  9990,2 55931  69.9989 188.7242 0002359 265.4623  94.6267 14.98329077 42374,6950.196,96.107,573.7,570.421,0.0
55931.0,STARLINK-5897,PAYLOAD,2023-12-20 13:42:48,14.98329481,0.0002434,69.999,186.8728,267.0558,93.0323,-8.1403e-06,-1.9e-06,0.0,0 STARLINK-5897,1 55931U 23037T   23354.57139647 -.00000190  00000-0 -81403-5 0  9990,2 55931  69.9990 186.8728 0002434 267.0558  93.0323 14.98329481 42143,6950.194,96.107,573.751,570.368,0.0
55931.0,STARLINK-5897,PAYLOAD,2023-12-20 20:07:20,14.98329326,0.0002445,69.999,186.1997,267.4501,92.6379,-7.8644e-06,-1.87e-06,0.0,0 STARLINK-5897,1 55931U 23037T   23354.83843667 -.00000187  00000-0 -78644-5 0  9992,2 55931  69.9990 186.1997 0002445 267.4501  92.6379 14.98329326 42524,6950.195,96.107,573.759,570.361,0.0
55931.0,STARLINK-5897,PAYLOAD,2023-12-20 21:43:28,14.98329384,0.0002445,69.999,186.0314,267.6938,92.3941,-6.7669e-06,-1.74e-06,0.0,0 STARLINK-5897,1 55931U 23037T   23354.90519665 -.00000174  00000-0 -67669-5 0  9999,2 55931  69.9990 186.0314 0002445 267.6938  92.3941 14.98329384 42191,6950.195,96.107,573.759,570.36,0.0
55931.0,STARLINK-5897,PAYLOAD,2023-12-21 13:44:49,14.98331246,0.000254,69.9988,184.3484,270.5427,89.5441,4.9346e-05,4.96e-06,0.0,0 STARLINK-5897,1 55931U 23037T   23355.57279363  .00000496  00000-0  49346-4 0  9997,2 55931  69.9988 184.3484 0002540 270.5427  89.5441 14.98331246 42293,6950.189,96.107,573.819,570.289,0.0
55931.0,STARLINK-5897,PAYLOAD,2023-12-21 21:45:29,14.98333264,0.0002505,69.999,183.5068,270.4238,89.6634,7.0006e-05,7.42e-06,0.0,0 STARLINK-5897,1 55931U 23037T   23355.90659129  .00000742  00000-0  70006-4 0  9997,2 55931  69.9990 183.5068 0002505 270.4238  89.6634 14.98333264 42348,6950.183,96.107,573.789,570.307,0.0
55931.0,STARLINK-5897,PAYLOAD,2023-12-22 13:46:50,14.98330238,0.000245,69.9991,181.8237,269.7745,90.3133,1.0195e-05,2.9e-07,0.0,0 STARLINK-5897,1 55931U 23037T   23356.57419399  .00000029  00000-0  10195-4 0  9995,2 55931  69.9991 181.8237 0002450 269.7745  90.3133 14.98330238 42443,6950.192,96.107,573.76,570.354,0.0
55931.0,STARLINK-5897,PAYLOAD,2023-12-22 21:47:30,14.98330357,0.000246,69.9991,180.9821,269.7182,90.3695,9.1242e-06,1.6e-07,0.0,0 STARLINK-5897,1 55931U 23037T   23356.90799362  .00000016  00000-0  91242-5 0  9992,2 55931  69.9991 180.9821 0002460 269.7182  90.3695 14.98330357 42498,6950.192,96.107,573.767,570.347,0.0
55931.0,STARLINK-5897,PAYLOAD,2023-12-23 13:48:51,14.98332857,0.0002337,69.9996,179.2995,260.446,99.6435,-2.3568e-05,-3.74e-06,0.0,0 STARLINK-5897,1 55931U 23037T   23357.57559169 -.00000374  00000-0 -23568-4 0  9999,2 55931  69.9996 179.2995 0002337 260.4460  99.6435 14.98332857 42598,6950.184,96.107,573.673,570.425,0.0
55931.0,STARLINK-5897,PAYLOAD,2023-12-23 21:49:31,14.98331731,0.000245,69.9992,178.4572,266.9021,93.1858,-3.767e-05,-5.42e-06,0.0,0 STARLINK-5897,1 55931U 23037T   23357.90939244 -.00000542  00000-0 -37670-4 0  9998,2 55931  69.9992 178.4572 0002450 266.9021  93.1858 14.98331731 42640,6950.188,96.107,573.755,570.35,0.0
55931.0,STARLINK-5897,PAYLOAD,2023-12-24 13:50:52,14.98330526,0.0002523,69.9991,176.7737,267.6768,92.4102,-8.2839e-07,-1.03e-06,0.0,0 STARLINK-5897,1 55931U 23037T   23358.57699135 -.00000103  00000-0 -82839-6 0  9996,2 55931  69.9991 176.7737 0002523 267.6768  92.4102 14.98330526 42746,6950.191,96.107,573.81,570.303,0.0
55931.0,STARLINK-5897,PAYLOAD,2023-12-24 21:51:32,14.98331743,0.0002528,69.9991,175.9321,268.0915,91.9954,1.348e-05,6.8e-07,0.0,0 STARLINK-5897,1 55931U 23037T   23358.91078996  .00000068  00000-0  13480-4 0  9992,2 55931  69.9991 175.9321 0002528 268.0915  91.9954 14.98331743 42796,6950.188,96.107,573.81,570.295,0.0
55931.0,STARLINK-5897,PAYLOAD,2023-12-25 13:52:52,14.98331391,0.0002528,69.9991,174.2493,267.4016,92.6853,1.5769e-05,9.5e-07,0.0,0 STARLINK-5897,1 55931U 23037T   23359.57838932  .00000095  00000-0  15769-4 0  9991,2 55931  69.9991 174.2493 0002528 267.4016  92.6853 14.98331391 42899,6950.189,96.107,573.811,570.297,0.0
55931.0,STARLINK-5897,PAYLOAD,2023-12-25 21:53:33,14.98331766,0.0002536,69.9993,173.4078,268.2942,91.7926,1.864e-05,1.29e-06,0.0,0 STARLINK-5897,1 55931U 23037T   23359.91218864  .00000129  00000-0  18640-4 0  9994,2 55931  69.9993 173.4078 0002536 268.2942  91.7926 14.98331766 42940,6950.187,96.107,573.815,570.29,0.0
55931.0,STARLINK-5897,PAYLOAD,2023-12-26 13:54:53,14.98329635,0.0002474,69.9996,171.7249,266.2792,93.8084,-4.6066e-06,-1.48e-06,0.0,0 STARLINK-5897,1 55931U 23037T   23360.57979017 -.00000148  00000-0 -46066-5 0  9999,2 55931  69.9996 171.7249 0002474 266.2792  93.8084 14.98329635 43048,6950.194,96.107,573.778,570.34,0.0
55931.0,STARLINK-5897,PAYLOAD,2023-12-26 21:55:34,14.98328453,0.0002381,70.0,170.8837,266.2968,93.7919,-8.9487e-08,-9.4e-07,0.0,0 STARLINK-5897,1 55931U 23037T   23360.91359107 -.00000094  00000-0 -89487-7 0  9995,2 55931  70.0000 170.8837 0002381 266.2968  93.7919 14.98328453 43090,6950.198,96.107,573.718,570.408,0.0
55931.0,STARLINK-5897,PAYLOAD,2023-12-27 13:56:54,14.98331134,0.0002518,70.0,169.2005,269.7627,90.3244,-3.3145e-07,-9.7e-07,0.0,0 STARLINK-5897,1 55931U 23037T   23361.58118875 -.00000097  00000-0 -33145-6 0  9996,2 55931  70.0000 169.2005 0002518 269.7627  90.3244 14.98331134 43196,6950.189,96.107,573.804,570.304,0.0
55931.0,STARLINK-5897,PAYLOAD,2023-12-27 21:57:35,14.98330146,0.0002419,70.0,168.3589,270.0546,90.0336,1.0606e-05,3.4e-07,0.0,0 STARLINK-5897,1 55931U 23037T   23361.91498895  .00000034  00000-0  10606-4 0  9990,2 55931  70.0000 168.3589 0002419 270.0546  90.0336 14.98330146 43245,6950.192,96.107,573.739,570.376,0.0
55931.0,STARLINK-5897,PAYLOAD,2023-12-28 13:58:55,14.98327841,0.0002465,69.9999,166.6756,262.8303,97.2576,-7.0499e-06,-1.77e-06,0.0,0 STARLINK-5897,1 55931U 23037T   23362.58259019 -.00000177  00000-0 -70499-5 0  9994,2 55931  69.9999 166.6756 0002465 262.8303  97.2576 14.98327841 43341,6950.2,96.107,573.778,570.351,0.0
55931.0,STARLINK-5897,PAYLOAD,2023-12-28 20:23:28,14.98328559,0.0002474,70.0,166.0025,263.6431,96.4446,-2.6252e-06,-1.24e-06,0.0,0 STARLINK-5897,1 55931U 23037T   23362.84962983 -.00000124  00000-0 -26252-5 0  9994,2 55931  70.0000 166.0025 0002474 263.6431  96.4446 14.98328559 43389,6950.197,96.107,573.782,570.343,0.0
